STARLINK-36588          
1 67573U 26016N   26054.60944523  .00317998  00000+0  20489-2 0  9994
2 67573  97.2842 114.3512 0000782 329.3181  30.8038 15.75252516  4581
STARLINK-36594          
1 67574U 26016P   26054.58335648 -.00351744  00000+0 -24369-2 0  9994
2 67574  97.2847 114.4102 0001030  74.4595 339.8397 15.75367229  5834
STARLINK-36400          
1 67575U 26016Q   26054.59180522  .00287348  00000+0  18571-2 0  9999
2 67575  97.2860 114.3770 0001232  99.6433 260.4971 15.75266918  4585
STARLINK-36591          
1 67576U 26016R   26054.57980531  .00230375  00000+0  15029-2 0  9999
2 67576  97.2842 114.3914 0001448  38.7801 321.3568 15.75208486  4583
STARLINK-36590          
1 67577U 26016S   26054.40509686  .00290692  00000+0  18778-2 0  9992
2 67577  97.2863 114.1698 0002120  97.9026 262.2480 15.75268674  4556
STARLINK-36613          
1 67578U 26016T   26054.62026638 -.00739438  00000+0 -45380-2 0  9995
2 67578  97.2838 114.4904 0005950  66.2989 293.8902 15.79052437  4598
STARLINK-36571          
1 67579U 26016U   26054.59956449  .00346294  00000+0  22224-2 0  9998
2 67579  97.2855 114.3655 0000572 305.7855  54.3357 15.75264564  4583
STARLINK-36612          
1 67580U 26016V   26051.13575919  .00083853  00000+0  43353-3 0  9992
2 67580  97.2829 110.8096 0001622  91.3110 268.8344 15.80855073  4041
STARLINK-36632          
1 67581U 26016W   26054.58757258  .00359890  00000+0  23042-2 0  9992
2 67581  97.2846 114.3813 0001412  35.4475 324.6884 15.75282775  4583
STARLINK-36609          
1 67582U 26016X   26054.41286889  .00206994  00000+0  13544-2 0  9994
2 67582  97.2850 114.1593 0002323 106.7775 253.3745 15.75203514  4554
STARLINK-36577          
1 67583U 26016Y   26054.58335648  .00215539  00000+0  14147-2 0  9996
2 67583  97.2843 114.4497 0001344  88.2770  55.9707 15.75109171  5788
STARLINK-36419          
1 67584U 26016Z   26054.12698552  .00158871  00000+0  10457-2 0  9998
2 67584  97.2841 113.9376 0002039   7.4336 352.6959 15.75201830  4511
