CCSDS_OMM_VERS = 2.0
CREATION_DATE  = 
ORIGINATOR     = 

OBJECT_NAME    = STARLINK-36588
OBJECT_ID      = 2026-016N
CENTER_NAME    = EARTH
REF_FRAME      = TEME
TIME_SYSTEM    = UTC
MEAN_ELEMENT_THEORY = SGP/SGP4

EPOCH          = 2026-02-23T14:37:36.067872
MEAN_MOTION    = 15.75252516
ECCENTRICITY   = .00007823
INCLINATION    = 97.2842
RA_OF_ASC_NODE = 114.3512
ARG_OF_PERICENTER = 329.3181
MEAN_ANOMALY   = 30.8038

EPHEMERIS_TYPE = 0
CLASSIFICATION_TYPE = U
NORAD_CAT_ID   = 67573
ELEMENT_SET_NO = 999
REV_AT_EPOCH   = 458
BSTAR          = .20488551E-2
MEAN_MOTION_DOT = .317998E-2
MEAN_MOTION_DDOT = 0

CCSDS_OMM_VERS = 2.0
CREATION_DATE  = 
ORIGINATOR     = 

OBJECT_NAME    = STARLINK-36594
OBJECT_ID      = 2026-016P
CENTER_NAME    = EARTH
REF_FRAME      = TEME
TIME_SYSTEM    = UTC
MEAN_ELEMENT_THEORY = SGP/SGP4

EPOCH          = 2026-02-23T14:00:01.999872
MEAN_MOTION    = 15.75367229
ECCENTRICITY   = .00010309
INCLINATION    = 97.2847
RA_OF_ASC_NODE = 114.4102
ARG_OF_PERICENTER = 74.4595
MEAN_ANOMALY   = 339.8397

EPHEMERIS_TYPE = 0
CLASSIFICATION_TYPE = U
NORAD_CAT_ID   = 67574
ELEMENT_SET_NO = 999
REV_AT_EPOCH   = 583
BSTAR          = -.24369395E-2
MEAN_MOTION_DOT = -.351744E-2
MEAN_MOTION_DDOT = 0

CCSDS_OMM_VERS = 2.0
CREATION_DATE  = 
ORIGINATOR     = 

OBJECT_NAME    = STARLINK-36400
OBJECT_ID      = 2026-016Q
CENTER_NAME    = EARTH
REF_FRAME      = TEME
TIME_SYSTEM    = UTC
MEAN_ELEMENT_THEORY = SGP/SGP4

EPOCH          = 2026-02-23T14:12:11.971008
MEAN_MOTION    = 15.75266918
ECCENTRICITY   = .00012325
INCLINATION    = 97.2860
RA_OF_ASC_NODE = 114.3770
ARG_OF_PERICENTER = 99.6433
MEAN_ANOMALY   = 260.4971

EPHEMERIS_TYPE = 0
CLASSIFICATION_TYPE = U
NORAD_CAT_ID   = 67575
ELEMENT_SET_NO = 999
REV_AT_EPOCH   = 458
BSTAR          = .18570817E-2
MEAN_MOTION_DOT = .287348E-2
MEAN_MOTION_DDOT = 0

CCSDS_OMM_VERS = 2.0
CREATION_DATE  = 
ORIGINATOR     = 

OBJECT_NAME    = STARLINK-36591
OBJECT_ID      = 2026-016R
CENTER_NAME    = EARTH
REF_FRAME      = TEME
TIME_SYSTEM    = UTC
MEAN_ELEMENT_THEORY = SGP/SGP4

EPOCH          = 2026-02-23T13:54:55.178784
MEAN_MOTION    = 15.75208486
ECCENTRICITY   = .00014485
INCLINATION    = 97.2842
RA_OF_ASC_NODE = 114.3914
ARG_OF_PERICENTER = 38.7801
MEAN_ANOMALY   = 321.3568

EPHEMERIS_TYPE = 0
CLASSIFICATION_TYPE = U
NORAD_CAT_ID   = 67576
ELEMENT_SET_NO = 999
REV_AT_EPOCH   = 458
BSTAR          = .15029068E-2
MEAN_MOTION_DOT = .230375E-2
MEAN_MOTION_DDOT = 0

CCSDS_OMM_VERS = 2.0
CREATION_DATE  = 
ORIGINATOR     = 

OBJECT_NAME    = STARLINK-36590
OBJECT_ID      = 2026-016S
CENTER_NAME    = EARTH
REF_FRAME      = TEME
TIME_SYSTEM    = UTC
MEAN_ELEMENT_THEORY = SGP/SGP4

EPOCH          = 2026-02-23T09:43:20.368704
MEAN_MOTION    = 15.75268674
ECCENTRICITY   = .00021205
INCLINATION    = 97.2863
RA_OF_ASC_NODE = 114.1698
ARG_OF_PERICENTER = 97.9026
MEAN_ANOMALY   = 262.2480

EPHEMERIS_TYPE = 0
CLASSIFICATION_TYPE = U
NORAD_CAT_ID   = 67577
ELEMENT_SET_NO = 999
REV_AT_EPOCH   = 455
BSTAR          = .18777944E-2
MEAN_MOTION_DOT = .290692E-2
MEAN_MOTION_DDOT = 0

CCSDS_OMM_VERS = 2.0
CREATION_DATE  = 
ORIGINATOR     = 

OBJECT_NAME    = STARLINK-36613
OBJECT_ID      = 2026-016T
CENTER_NAME    = EARTH
REF_FRAME      = TEME
TIME_SYSTEM    = UTC
MEAN_ELEMENT_THEORY = SGP/SGP4

EPOCH          = 2026-02-23T14:53:11.015232
MEAN_MOTION    = 15.79052437
ECCENTRICITY   = .00059506
INCLINATION    = 97.2838
RA_OF_ASC_NODE = 114.4904
ARG_OF_PERICENTER = 66.2989
MEAN_ANOMALY   = 293.8902

EPHEMERIS_TYPE = 0
CLASSIFICATION_TYPE = U
NORAD_CAT_ID   = 67578
ELEMENT_SET_NO = 999
REV_AT_EPOCH   = 459
BSTAR          = -.4538016E-2
MEAN_MOTION_DOT = -.739438E-2
MEAN_MOTION_DDOT = 0

CCSDS_OMM_VERS = 2.0
CREATION_DATE  = 
ORIGINATOR     = 

OBJECT_NAME    = STARLINK-36571
OBJECT_ID      = 2026-016U
CENTER_NAME    = EARTH
REF_FRAME      = TEME
TIME_SYSTEM    = UTC
MEAN_ELEMENT_THEORY = SGP/SGP4

EPOCH          = 2026-02-23T14:23:22.371936
MEAN_MOTION    = 15.75264564
ECCENTRICITY   = .00005729
INCLINATION    = 97.2855
RA_OF_ASC_NODE = 114.3655
ARG_OF_PERICENTER = 305.7855
MEAN_ANOMALY   = 54.3357

EPHEMERIS_TYPE = 0
CLASSIFICATION_TYPE = U
NORAD_CAT_ID   = 67579
ELEMENT_SET_NO = 999
REV_AT_EPOCH   = 458
BSTAR          = .22224081E-2
MEAN_MOTION_DOT = .346294E-2
MEAN_MOTION_DDOT = 0

CCSDS_OMM_VERS = 2.0
CREATION_DATE  = 
ORIGINATOR     = 

OBJECT_NAME    = STARLINK-36612
OBJECT_ID      = 2026-016V
CENTER_NAME    = EARTH
REF_FRAME      = TEME
TIME_SYSTEM    = UTC
MEAN_ELEMENT_THEORY = SGP/SGP4

EPOCH          = 2026-02-20T03:15:29.594016
MEAN_MOTION    = 15.80855073
ECCENTRICITY   = .00016227
INCLINATION    = 97.2829
RA_OF_ASC_NODE = 110.8096
ARG_OF_PERICENTER = 91.3110
MEAN_ANOMALY   = 268.8344

EPHEMERIS_TYPE = 0
CLASSIFICATION_TYPE = U
NORAD_CAT_ID   = 67580
ELEMENT_SET_NO = 999
REV_AT_EPOCH   = 404
BSTAR          = .43353183E-3
MEAN_MOTION_DOT = .83853E-3
MEAN_MOTION_DDOT = 0

CCSDS_OMM_VERS = 2.0
CREATION_DATE  = 
ORIGINATOR     = 

OBJECT_NAME    = STARLINK-36632
OBJECT_ID      = 2026-016W
CENTER_NAME    = EARTH
REF_FRAME      = TEME
TIME_SYSTEM    = UTC
MEAN_ELEMENT_THEORY = SGP/SGP4

EPOCH          = 2026-02-23T14:06:06.270912
MEAN_MOTION    = 15.75282775
ECCENTRICITY   = .00014125
INCLINATION    = 97.2846
RA_OF_ASC_NODE = 114.3813
ARG_OF_PERICENTER = 35.4475
MEAN_ANOMALY   = 324.6884

EPHEMERIS_TYPE = 0
CLASSIFICATION_TYPE = U
NORAD_CAT_ID   = 67581
ELEMENT_SET_NO = 999
REV_AT_EPOCH   = 458
BSTAR          = .23042102E-2
MEAN_MOTION_DOT = .35989E-2
MEAN_MOTION_DDOT = 0

CCSDS_OMM_VERS = 2.0
CREATION_DATE  = 
ORIGINATOR     = 

OBJECT_NAME    = STARLINK-36609
OBJECT_ID      = 2026-016X
CENTER_NAME    = EARTH
REF_FRAME      = TEME
TIME_SYSTEM    = UTC
MEAN_ELEMENT_THEORY = SGP/SGP4

EPOCH          = 2026-02-23T09:54:31.872096
MEAN_MOTION    = 15.75203514
ECCENTRICITY   = .00023232
INCLINATION    = 97.2850
RA_OF_ASC_NODE = 114.1593
ARG_OF_PERICENTER = 106.7775
MEAN_ANOMALY   = 253.3745

EPHEMERIS_TYPE = 0
CLASSIFICATION_TYPE = U
NORAD_CAT_ID   = 67582
ELEMENT_SET_NO = 999
REV_AT_EPOCH   = 455
BSTAR          = .13544268E-2
MEAN_MOTION_DOT = .206994E-2
MEAN_MOTION_DDOT = 0

CCSDS_OMM_VERS = 2.0
CREATION_DATE  = 
ORIGINATOR     = 

OBJECT_NAME    = STARLINK-36577
OBJECT_ID      = 2026-016Y
CENTER_NAME    = EARTH
REF_FRAME      = TEME
TIME_SYSTEM    = UTC
MEAN_ELEMENT_THEORY = SGP/SGP4

EPOCH          = 2026-02-23T14:00:01.999872
MEAN_MOTION    = 15.75109171
ECCENTRICITY   = .00013445
INCLINATION    = 97.2843
RA_OF_ASC_NODE = 114.4497
ARG_OF_PERICENTER = 88.2770
MEAN_ANOMALY   = 55.9707

EPHEMERIS_TYPE = 0
CLASSIFICATION_TYPE = U
NORAD_CAT_ID   = 67583
ELEMENT_SET_NO = 999
REV_AT_EPOCH   = 578
BSTAR          = .1414695E-2
MEAN_MOTION_DOT = .215539E-2
MEAN_MOTION_DDOT = 0

CCSDS_OMM_VERS = 2.0
CREATION_DATE  = 
ORIGINATOR     = 

OBJECT_NAME    = STARLINK-36419
OBJECT_ID      = 2026-016Z
CENTER_NAME    = EARTH
REF_FRAME      = TEME
TIME_SYSTEM    = UTC
MEAN_ELEMENT_THEORY = SGP/SGP4

EPOCH          = 2026-02-23T03:02:51.548928
MEAN_MOTION    = 15.75201830
ECCENTRICITY   = .00020399
INCLINATION    = 97.2841
RA_OF_ASC_NODE = 113.9376
ARG_OF_PERICENTER = 7.4336
MEAN_ANOMALY   = 352.6959

EPHEMERIS_TYPE = 0
CLASSIFICATION_TYPE = U
NORAD_CAT_ID   = 67584
ELEMENT_SET_NO = 999
REV_AT_EPOCH   = 451
BSTAR          = .10457452E-2
MEAN_MOTION_DOT = .158871E-2
MEAN_MOTION_DDOT = 0

